NAYIF-1 (EO-88)         
1 42017U 17008BX  20115.72893215  .00001557  00000-0  62663-4 0  9991
2 42017  97.3635 184.0684 0007323 140.7179 219.4593 15.26352030177357
MAX VALIER SAT          
1 42778U 17036P   20115.78022021  .00000908  00000-0  42054-4 0  9992
2 42778  97.3103 170.8865 0011529 203.2933 156.7782 15.22526161157569
RADFXSAT (FOX-1B)       
1 43017U 17073E   20115.73558004  .00000300  00000-0  29275-4 0  9996
2 43017  97.7249  30.0417 0256024 225.1688 132.8466 14.78889212131220
FOX-1D (AO-92)          
1 43137U 18004AC  20115.64655759  .00000923  00000-0  41022-4 0  9994
2 43137  97.4488 187.1651 0007722 239.2172 120.8306 15.24023080126850
DIWATA-2B               
1 43678U 18084H   20115.87563277 -.00000217  00000-0 -15899-4 0  9991
2 43678  97.8746 234.3050 0010040   2.7229 357.4060 14.91618926 81039
ES'HAIL 2               
1 43700U 18090A   20115.79439010  .00000149  00000-0  00000-0 0  9998
2 43700   0.0149 253.9294 0001076 129.6642 141.4486  1.00267440  5173
FOX-1CLIFF (AO-95)      
1 43770U 18099N   20115.76194043  .00000341  00000-0  36433-4 0  9992
2 43770  97.7088 188.0698 0015073  22.6039 337.5842 14.94957865 75899
ITASAT 1                
1 43786U 18099AE  20115.77110667 -.00000038  00000-0  17717-5 0  9999
2 43786  97.7103 188.4599 0015572  15.9965 344.1744 14.95301724 75911
JY1SAT (JO-97)          
1 43803U 18099AX  20115.79186060  .00000165  00000-0  20094-4 0  9992
2 43803  97.7059 188.3123 0015382  16.1040 344.0667 14.95468490 75916
PSAT2 (NO-104)          
1 44354U 19036R   20115.87585830  .00013072  00000-0  19247-3 0  9991
2 44354  28.5305  12.2866 0367745  99.0892 265.1488 15.02684167 45754
BRICSAT2 (NO-103)       
1 44355U 19036S   20115.86519479  .00023688  00000-0  33689-3 0  9997
2 44355  28.5304   6.3548 0349355 108.7071 255.1764 15.07333515 45815
JAISAT-1                
1 44419U 19038F   20115.84398810  .00000965  00000-0  58660-4 0  9992
2 44419  97.5339  78.0882 0020541 319.2712  40.6982 15.12702252 44497
DUCHIFAT-3              
1 44854U 19089C   20115.87436267  .00000469  00000-0  44336-4 0  9997
2 44854  36.9669  54.9832 0008891 342.5032  17.5415 14.99031682 20257
ORBITAL FACTORY 2 (OF-2)
1 45113U 19071C   20115.84254042  .00001296  00000-0  51390-4 0  9990
2 45113  51.6429 262.4899 0012759 222.3018 137.6981 15.33159279 12907
HUSKYSAT-1              
1 45119U 19071J   20115.82885859  .00001831  00000-0  67336-4 0  9992
2 45119  51.6425 262.3995 0012089 218.2851 141.7273 15.33393633 12892
